OBJECT_NAME,OBJECT_ID,EPOCH,MEAN_MOTION,ECCENTRICITY,INCLINATION,RA_OF_ASC_NODE,ARG_OF_PERICENTER,MEAN_ANOMALY,EPHEMERIS_TYPE,CLASSIFICATION_TYPE,NORAD_CAT_ID,ELEMENT_SET_NO,REV_AT_EPOCH,BSTAR,MEAN_MOTION_DOT,MEAN_MOTION_DDOT
STAR ONE D2,2021-069A,2024-01-20T03:45:19.020960,1.00279300,.0001883,0.0047,43.6865,215.0065,206.6528,0,U,49055,999,912,0,-.26E-5,0
EUTELSAT QUANTUM,2021-069B,2024-01-20T11:17:19.299264,1.00270239,.0002996,0.0386,293.5034,7.3498,35.4962,0,U,49056,999,911,0,.13E-5,0
TJS-7,2021-077A,2024-01-20T14:47:11.898816,1.00269842,.0001344,0.0831,290.4913,320.5561,350.7047,0,U,49115,999,76,0,-.119E-5,0
CHINASAT 9B,2021-080A,2024-01-20T13:10:32.836224,1.00273223,.0002349,0.0128,82.4101,193.0943,142.9324,0,U,49125,999,883,0,-.309E-5,0
SES-17,2021-095A,2024-01-18T14:03:03.991104,1.00270076,.0001112,0.0135,63.5025,198.3564,359.2754,0,U,49332,999,901,0,-.267E-5,0
SYRACUSE 4A,2021-095B,2024-01-19T11:12:56.409120,1.00268221,.0001458,0.0186,62.7804,233.7219,35.5634,0,U,49333,999,913,0,.14E-5,0
CHINASAT 1D (ZX 1D),2021-114A,2024-01-20T12:50:42.624384,1.00271148,.0001042,0.0257,122.7972,148.6436,170.8069,0,U,49505,999,801,0,-.332E-5,0
STPSAT-6,2021-118A,2024-01-20T14:30:22.160160,1.00271708,.0000982,0.0367,256.0169,48.3028,281.0886,0,U,49817,999,775,0,-.41E-6,0
EXPRESS AMU-7,2021-123A,2024-01-19T06:27:38.028960,1.00270160,.0000274,0.0169,41.5972,148.5545,169.8478,0,U,50001,999,772,0,-.239E-5,0
TIANLIAN 2-02,2021-124A,2024-01-20T15:32:19.877856,1.00273141,.0003211,1.0559,275.4362,20.2040,227.9475,0,U,50005,999,780,0,-.8E-7,0
TURKSAT 5B,2021-126A,2024-01-19T04:19:24.477024,1.00270453,.0005318,0.0643,351.6541,321.9015,271.3322,0,U,50212,999,747,0,.151E-5,0
SHIYAN 12 01 (SY-12 01),2021-129A,2024-01-20T18:02:56.526432,1.00437612,.0001562,1.4009,93.7564,133.0099,187.0167,0,U,50321,999,770,0,.151E-5,0
SHIYAN 12 02 (SY-12 02),2021-129B,2024-01-20T17:09:42.650208,1.00425163,.0003531,1.3992,93.7679,182.7123,241.3759,0,U,50322,999,770,0,-.244E-5,0
TJS-9,2021-135A,2024-01-20T12:50:42.624384,1.00273558,.0005298,0.0410,108.2936,221.1713,119.7857,0,U,50574,999,762,0,-.295E-5,0
USA 324,2022-006A,2023-12-27T10:09:25.875360,1.00148002,.0003203,1.3845,91.0159,243.6221,48.1327,0,U,51280,999,707,0,-.319E-5,0
USA 325,2022-006B,2024-01-17T08:09:21.646368,1.00139380,.0000996,0.3280,85.6311,339.8535,324.8557,0,U,51281,999,728,0,-.208E-5,0
GOES 18,2022-021A,2024-01-19T10:39:28.950048,1.00272603,.0000637,0.0218,176.3277,73.8309,251.0249,0,U,51850,999,696,0,.102E-5,0
CHINASAT 6D (ZX 6D),2022-038A,2024-01-20T07:42:45.662112,1.00270311,.0003266,0.0165,73.2486,209.3976,77.2936,0,U,52255,999,660,0,-.35E-5,0
NILESAT 301,2022-061A,2024-01-20T09:18:39.026880,1.00271319,.0005467,0.0430,5.5487,310.2564,296.0734,0,U,52817,999,592,0,-.54E-6,0
CMS-02 (GSAT 24),2022-067A,2024-01-20T13:00:32.582592,1.00270012,.0002298,0.1163,273.2422,188.2769,296.0072,0,U,52903,999,579,0,-.16E-5,0
MEASAT 3D,2022-067B,2024-01-20T13:10:32.836224,1.00271066,.0003566,0.0366,322.9211,342.9410,102.6798,0,U,52904,999,583,0,-.237E-5,0
WFOV (USA 332),2022-073A,2024-01-20T13:09:42.661152,1.00271618,.0001629,1.4412,90.3063,153.0625,192.7705,0,U,52940,999,555,0,-.36E-5,0
TIANLIAN 2-03,2022-078A,2024-01-19T10:04:39.961344,1.00275626,.0002203,1.6128,279.5256,40.5209,320.0620,0,U,53100,999,573,0,.8E-6,0
SBIRS GEO-6 (USA 336),2022-092A,2024-01-20T13:52:20.443296,1.00270803,.000365,4.8807,310.9577,19.2324,136.3513,0,U,53355,999,542,0,-.281E-5,0
EUTELSAT KONNECT VHTS,2022-110A,2024-01-19T04:05:18.263328,1.00269264,.0002835,0.0513,92.3647,186.9760,262.6897,0,U,53765,999,497,0,.21E-6,0
CHINASAT 1E (ZX 1E),2022-112A,2024-01-20T11:27:05.761728,1.00269549,.0002973,0.2548,278.5694,16.7169,77.1913,0,U,53813,999,504,0,-.144E-5,0
