49055,STAR ONE D2,2021,1436.1,6190.0,+,0.01,Active,1,GSO,French Guiana,Brazil,Commercial,Communications,Ariane,1 49055U 21069A   24020.15647015 -.00000260  00000+0  00000+0 0  9995,2 49055   0.0047  43.6865 0001883 215.0065 206.6528  1.00279300  9120,1.002793,0.0001883,GEO
49056,EUTELSAT QUANTUM,2021,1436.08,3461.0,+,0.04,Active,1,GSO,French Guiana,EUTELSAT,Commercial,Communications,Ariane,1 49056U 21069B   24020.47036226  .00000130  00000+0  00000+0 0  9992,2 49056   0.0386 293.5034 0002996   7.3498  35.4962  1.00270239  9110,1.00270239,0.0002996,GEO
49115,TJS-7,2021,1436.13,-1.0,+,0.09,Active,1,GSO,PRC,China,Government,Communications,Long March,1 49115U 21077A   24020.61610994 -.00000119  00000+0  00000+0 0  9991,2 49115   0.0831 290.4913 0001344 320.5561 350.7047  1.00269842   767,1.00269842,0.0001344,GEO
49125,CHINASAT 9B,2021,1436.07,5500.0,+,0.02,Active,1,GSO,PRC,China,Government,Communications,Long March,1 49125U 21080A   24020.54899116 -.00000309  00000+0  00000+0 0  9994,2 49125   0.0128  82.4101 0002349 193.0943 142.9324  1.00273223  8831,1.00273223,0.0002349,GEO
49332,SES-17,2021,1436.12,6411.0,+,0.01,Active,1,GSO,French Guiana,SES,Commercial,Communications,Ariane,1 49332U 21095A   24018.58546286 -.00000267  00000+0  00000+0 0  9991,2 49332   0.0135  63.5025 0001112 198.3564 359.2754  1.00270076  9012,1.00270076,0.0001112,GEO
49333,SYRACUSE 4A,2021,1436.15,3852.0,+,0.02,Active,1,GSO,French Guiana,France,Military,Communications,Ariane,1 49333U 21095B   24019.46731955  .00000140  00000+0  00000+0 0  9998,2 49333   0.0186  62.7804 0001458 233.7219  35.5634  1.00268221  9132,1.00268221,0.0001458,GEO
49505,CHINASAT 1D (ZX 1D),2021,1436.1,2500.0,+,0.02,Active,1,GSO,PRC,China,Commercial,Communications,Long March,1 49505U 21114A   24020.53521556 -.00000332  00000+0  00000+0 0  9999,2 49505   0.0257 122.7972 0001042 148.6436 170.8069  1.00271148  8012,1.00271148,0.0001042,GEO
49817,STPSAT-6,2021,1436.1,1000.0,+,0.04,Active,1,GSO,USA,USA,Military,Technology Development,Atlas,1 49817U 21118A   24020.60442315 -.00000041  00000+0  00000+0 0  9999,2 49817   0.0367 256.0169 0000982  48.3028 281.0886  1.00271708  7758,1.00271708,9.82e-05,GEO
50001,EXPRESS AMU-7,2021,1436.12,2150.0,+,0.02,Active,1,GSO,Kazakhstan,Russia/USSR,Commercial,Communications,Proton,1 50001U 21123A   24019.26919015 -.00000239  00000+0  00000+0 0  9997,2 50001   0.0169  41.5972 0000274 148.5545 169.8478  1.00270160  7723,1.0027016,2.74e-05,GEO
50005,TIANLIAN 2-02,2021,1436.08,5000.0,+,1.06,Active,1,GSO,PRC,China,Government,Communications,Long March,1 50005U 21124A   24020.64745229 -.00000008  00000+0  00000+0 0  9994,2 50005   1.0559 275.4362 0003211  20.2040 227.9475  1.00273141  7806,1.00273141,0.0003211,GSO
50212,TURKSAT 5B,2021,1436.12,4500.0,+,0.06,Active,1,GSO,USA,Turkey,Commercial,Communications,Falcon,1 50212U 21126A   24019.18014441  .00000151  00000+0  00000+0 0  9996,2 50212   0.0643 351.6541 0005318 321.9015 271.3322  1.00270453  7478,1.00270453,0.0005318,GEO
50321,SHIYAN 12 01 (SY-12 01),2021,1433.74,3000.0,+,1.4,Active,1,GSO,PRC,China,Government,Technology Development,Long March,1 50321U 21129A   24020.75204313  .00000151  00000+0  00000+0 0  9994,2 50321   1.4009  93.7564 0001562 133.0099 187.0167  1.00437612  7708,1.00437612,0.0001562,GSO
50322,SHIYAN 12 02 (SY-12 02),2021,1433.9,3000.0,+,1.4,Active,1,GSO,PRC,China,Government,Technology Development,Long March,1 50322U 21129B   24020.71507697 -.00000244  00000+0  00000+0 0  9996,2 50322   1.3992  93.7679 0003531 182.7123 241.3759  1.00425163  7702,1.00425163,0.0003531,GSO
50574,TJS-9,2021,1436.07,-1.0,+,0.04,Active,0,GSO,PRC,China,Unknown,Unknown,Long March,1 50574U 21135A   24020.53521556 -.00000295  00000+0  00000+0 0  9998,2 50574   0.0410 108.2936 0005298 221.1713 119.7857  1.00273558  7622,1.00273558,0.0005298,GEO
51280,USA 324,2022,1437.77,500.0,+,1.22,Active,1,GSO,USA,USA,Military,Space Science,Atlas,1 51280U 22006A   23361.42321615 -.00000319  00000+0  00000+0 0  9997,2 51280   1.3845  91.0159 0003203 243.6221  48.1327  1.00148002  7077,1.00148002,0.0003203,GSO
51281,USA 325,2022,1434.99,500.0,+,0.11,Active,1,GSO,USA,USA,Military,Space Science,Atlas,1 51281U 22006B   24017.33983387 -.00000208  00000+0  00000+0 0  9994,2 51281   0.3280  85.6311 0000996 339.8535 324.8557  1.00139380  7282,1.0013938,9.96e-05,GEO
51850,GOES 18,2022,1436.09,5209.0,+,0.02,Active,1,GSO,USA,USA,Government,Earth Observation,Atlas,1 51850U 22021A   24019.44408507  .00000102  00000+0  00000+0 0  9995,2 51850   0.0218 176.3277 0000637  73.8309 251.0249  1.00272603  6966,1.00272603,6.37e-05,GEO
52255,CHINASAT 6D (ZX 6D),2022,1436.11,5250.0,+,0.01,Active,1,GSO,PRC,China,Commercial/Government,Communications,Long March,1 52255U 22038A   24020.32136183 -.00000350  00000+0  00000+0 0  9996,2 52255   0.0165  73.2486 0003266 209.3976  77.2936  1.00270311  6607,1.00270311,0.0003266,GEO
52817,NILESAT 301,2022,1436.11,3500.0,+,0.04,Active,1,GSO,USA,Egypt,Government,Communications,Falcon,1 52817U 22061A   24020.38795170 -.00000054  00000+0  00000+0 0  9990,2 52817   0.0430   5.5487 0005467 310.2564 296.0734  1.00271319  5925,1.00271319,0.0005467,GEO
52903,CMS-02 (GSAT 24),2022,1436.12,4181.0,+,0.12,Active,1,GSO,French Guiana,India,Government,Communications,Ariane,1 52903U 22067A   24020.54204378 -.00000160  00000+0  00000+0 0  9993,2 52903   0.1163 273.2422 0002298 188.2769 296.0072  1.00270012  5796,1.00270012,0.0002298,GEO
52904,MEASAT 3D,2022,1436.1,5648.0,+,0.04,Active,1,GSO,French Guiana,Malaysia,Commercial,Communications,Ariane,1 52904U 22067B   24020.54899116 -.00000237  00000+0  00000+0 0  9999,2 52904   0.0366 322.9211 0003566 342.9410 102.6798  1.00271066  5832,1.00271066,0.0003566,GEO
52940,WFOV (USA 332),2022,1436.09,-1.0,+,1.44,Active,0,GSO,USA,USA,Unknown,Unknown,Atlas,1 52940U 22073A   24020.54841043 -.00000360  00000+0  00000+0 0  9999,2 52940   1.4412  90.3063 0001629 153.0625 192.7705  1.00271618  5557,1.00271618,0.0001629,GSO
53100,TIANLIAN 2-03,2022,1436.04,5000.0,+,1.62,Active,1,GSO,PRC,China,Government,Communications,Long March,1 53100U 22078A   24019.41990696  .00000080  00000+0  00000+0 0  9994,2 53100   1.6128 279.5256 0002203  40.5209 320.0620  1.00275626  5739,1.00275626,0.0002203,GSO
53355,SBIRS GEO-6 (USA 336),2022,1436.09,4850.0,+,4.88,Active,1,GSO,USA,USA,Military,Earth Observation,Atlas,1 53355U 22092A   24020.57801439 -.00000281  00000+0  00000+0 0  9991,2 53355   4.8807 310.9577 0003650  19.2324 136.3513  1.00270803  5421,1.00270803,0.000365,GSO
53765,EUTELSAT KONNECT VHTS,2022,1436.13,6400.0,+,0.05,Active,1,GSO,French Guiana,EUTELSAT,Commercial,Communications,Ariane,1 53765U 22110A   24019.17035027  .00000021  00000+0  00000+0 0  9994,2 53765   0.0513  92.3647 0002835 186.9760 262.6897  1.00269264  4973,1.00269264,0.0002835,GEO
53813,CHINASAT 1E (ZX 1E),2022,1436.13,2500.0,+,0.26,Active,1,GSO,PRC,China,Commercial,Communications,Long March,1 53813U 22112A   24020.47715002 -.00000144  00000+0  00000+0 0  9990,2 53813   0.2548 278.5694 0002973  16.7169  77.1913  1.00269549  5046,1.00269549,0.0002973,GEO
